{"type": "FeatureCollection", "features": [ {"type": "Feature", "properties": {"norad_id": 37340, "name": "COSMOS 2251 DEB", "group": "cosmos-2251-debris", "lat": 61.7340451631713, "lon": 53.791972233947796, "alt_km": 767.5090322152018, "timestamp": "2025-12-18T19:29:52.939914+00:00", "meta": {"OBJECT_NAME": "COSMOS 2251 DEB", "OBJECT_ID": "1993-036BLG", "EPOCH": "2025-12-17T01:11:59.297568", "MEAN_MOTION": 14.36928464, "ECCENTRICITY": 0.00179655, "INCLINATION": 74.0254, "RA_OF_ASC_NODE": 269.2249, "ARG_OF_PERICENTER": 3.2012, "MEAN_ANOMALY": 356.9253, "EPHEMERIS_TYPE": 0, "CLASSIFICATION_TYPE": "U", "NORAD_CAT_ID": 37340, "ELEMENT_SET_NO": 999, "REV_AT_EPOCH": 84129, "BSTAR": 0.00016814151, "MEAN_MOTION_DOT": 4.72e-06, "MEAN_MOTION_DDOT": 0}, "tle": {"line1": "1 37340U 93036BLG 25351.04999187  .00000472  00000+0  16814-3 0  9996", "line2": "2 37340  74.0254 269.2249 0017965   3.2012 356.9253 14.36928464841295"}}, "geometry": {"type": "Point", "coordinates": [53.791972233947796, 61.7340451631713]}}, {"type": "Feature", "properties": {"norad_id": 37483, "name": "COSMOS 2251 DEB", "group": "cosmos-2251-debris", "lat": 11.038272463473216, "lon": 135.22078571943223, "alt_km": 692.8176871888654, "timestamp": "2025-12-18T19:29:52.939924+00:00", "meta": {"OBJECT_NAME": "COSMOS 2251 DEB", "OBJECT_ID": "1993-036BLL", "EPOCH": "2025-12-17T01:51:56.048256", "MEAN_MOTION": 14.43563057, "ECCENTRICITY": 0.00933386, "INCLINATION": 73.9734, "RA_OF_ASC_NODE": 135.2418, "ARG_OF_PERICENTER": 340.7121, "MEAN_ANOMALY": 19.051, "EPHEMERIS_TYPE": 0, "CLASSIFICATION_TYPE": "U", "NORAD_CAT_ID": 37483, "ELEMENT_SET_NO": 999, "REV_AT_EPOCH": 65342, "BSTAR": 0.00018193502, "MEAN_MOTION_DOT": 6.2e-06, "MEAN_MOTION_DDOT": 0}, "tle": {"line1": "1 37483U 93036BLL 25351.07773204  .00000620  00000+0  18194-3 0  9995", "line2": "2 37483  73.9734 135.2418 0093338 340.7121  19.0510 14.43563057653422"}}, "geometry": {"type": "Point", "coordinates": [135.22078571943223, 11.038272463473216]}}, {"type": "Feature", "properties": {"norad_id": 37484, "name": "COSMOS 2251 DEB", "group": "cosmos-2251-debris", "lat": -39.46934279787548, "lon": 30.86963513558444, "alt_km": 730.9145968767216, "timestamp": "2025-12-18T19:29:52.939934+00:00", "meta": {"OBJECT_NAME": "COSMOS 2251 DEB", "OBJECT_ID": "1993-036BLM", "EPOCH": "2025-12-18T07:38:27.570624", "MEAN_MOTION": 14.41807924, "ECCENTRICITY": 0.00394245, "INCLINATION": 73.8227, "RA_OF_ASC_NODE": 197.9673, "ARG_OF_PERICENTER": 231.9462, "MEAN_ANOMALY": 306.1628, "EPHEMERIS_TYPE": 0, "CLASSIFICATION_TYPE": "U", "NORAD_CAT_ID": 37484, "ELEMENT_SET_NO": 999, "REV_AT_EPOCH": 65459, "BSTAR": 0.0005692289, "MEAN_MOTION_DOT": 1.85e-05, "MEAN_MOTION_DDOT": 0}, "tle": {"line1": "1 37484U 93036BLM 25352.31837466  .00001850  00000+0  56923-3 0  9993", "line2": "2 37484  73.8227 197.9673 0039424 231.9462 306.1628 14.41807924654593"}}, "geometry": {"type": "Point", "coordinates": [30.86963513558444, -39.46934279787548]}}, {"type": "Feature", "properties": {"norad_id": 37486, "name": "COSMOS 2251 DEB", "group": "cosmos-2251-debris", "lat": -35.20664308383756, "lon": -64.45901287736017, "alt_km": 917.8661658987021, "timestamp": "2025-12-18T19:29:52.939944+00:00", "meta": {"OBJECT_NAME": "COSMOS 2251 DEB", "OBJECT_ID": "1993-036BLP", "EPOCH": "2025-12-17T02:32:52.709568", "MEAN_MOTION": 14.133616, "ECCENTRICITY": 0.02300438, "INCLINATION": 73.6918, "RA_OF_ASC_NODE": 106.7033, "ARG_OF_PERICENTER": 334.068, "MEAN_ANOMALY": 206.8915, "EPHEMERIS_TYPE": 0, "CLASSIFICATION_TYPE": "U", "NORAD_CAT_ID": 37486, "ELEMENT_SET_NO": 999, "REV_AT_EPOCH": 63431, "BSTAR": 0.0015394853, "MEAN_MOTION_DOT": 3.693e-05, "MEAN_MOTION_DDOT": 0}, "tle": {"line1": "1 37486U 93036BLP 25351.10616562  .00003693  00000+0  15395-2 0  9997", "line2": "2 37486  73.6918 106.7033 0230043 334.0680 206.8915 14.13361600634313"}}, "geometry": {"type": "Point", "coordinates": [-64.45901287736017, -35.20664308383756]}}, {"type": "Feature", "properties": {"norad_id": 37487, "name": "COSMOS 2251 DEB", "group": "cosmos-2251-debris", "lat": -5.736981373163771, "lon": 178.3491577365621, "alt_km": 611.7056763606006, "timestamp": "2025-12-18T19:29:52.939954+00:00", "meta": {"OBJECT_NAME": "COSMOS 2251 DEB", "OBJECT_ID": "1993-036BLQ", "EPOCH": "2025-12-12T06:17:24.389376", "MEAN_MOTION": 14.80982589, "ECCENTRICITY": 0.00255931, "INCLINATION": 73.9026, "RA_OF_ASC_NODE": 193.0379, "ARG_OF_PERICENTER": 31.2136, "MEAN_ANOMALY": 329.0553, "EPHEMERIS_TYPE": 0, "CLASSIFICATION_TYPE": "U", "NORAD_CAT_ID": 37487, "ELEMENT_SET_NO": 999, "REV_AT_EPOCH": 81238, "BSTAR": 0.0042593386, "MEAN_MOTION_DOT": 0.00033302, "MEAN_MOTION_DDOT": 0}, "tle": {"line1": "1 37487U 93036BLQ 25346.26208784  .00033302  00000+0  42593-2 0  9992", "line2": "2 37487  73.9026 193.0379 0025593  31.2136 329.0553 14.80982589812383"}}, "geometry": {"type": "Point", "coordinates": [178.3491577365621, -5.736981373163771]}}, {"type": "Feature", "properties": {"norad_id": 37491, "name": "COSMOS 2251 DEB", "group": "cosmos-2251-debris", "lat": -34.366317317304876, "lon": -107.47531037929507, "alt_km": 893.5620175153917, "timestamp": "2025-12-18T19:29:52.939964+00:00", "meta": {"OBJECT_NAME": "COSMOS 2251 DEB", "OBJECT_ID": "1993-036BLU", "EPOCH": "2025-12-17T10:30:09.799488", "MEAN_MOTION": 13.75304386, "ECCENTRICITY": 0.03169466, "INCLINATION": 73.9062, "RA_OF_ASC_NODE": 266.2149, "ARG_OF_PERICENTER": 258.4493, "MEAN_ANOMALY": 98.089, "EPHEMERIS_TYPE": 0, "CLASSIFICATION_TYPE": "U", "NORAD_CAT_ID": 37491, "ELEMENT_SET_NO": 999, "REV_AT_EPOCH": 55811, "BSTAR": 0.00073849691, "MEAN_MOTION_DOT": 9.96e-06, "MEAN_MOTION_DDOT": 0}, "tle": {"line1": "1 37491U 93036BLU 25351.43761342  .00000996  00000+0  73850-3 0  9990", "line2": "2 37491  73.9062 266.2149 0316946 258.4493  98.0890 13.75304386558111"}}, "geometry": {"type": "Point", "coordinates": [-107.47531037929507, -34.366317317304876]}}, {"type": "Feature", "properties": {"norad_id": 37498, "name": "COSMOS 2251 DEB", "group": "cosmos-2251-debris", "lat": -52.819517294816045, "lon": 150.21956158946534, "alt_km": 713.5205232553062, "timestamp": "2025-12-18T19:29:52.939974+00:00", "meta": {"OBJECT_NAME": "COSMOS 2251 DEB", "OBJECT_ID": "1993-036BMB", "EPOCH": "2025-12-17T05:47:45.632832", "MEAN_MOTION": 14.54797097, "ECCENTRICITY": 0.00121661, "INCLINATION": 74.035, "RA_OF_ASC_NODE": 175.365, "ARG_OF_PERICENTER": 238.5243, "MEAN_ANOMALY": 121.4732, "EPHEMERIS_TYPE": 0, "CLASSIFICATION_TYPE": "U", "NORAD_CAT_ID": 37498, "ELEMENT_SET_NO": 999, "REV_AT_EPOCH": 65420, "BSTAR": 0.00050498457, "MEAN_MOTION_DOT": 2.139e-05, "MEAN_MOTION_DDOT": 0}, "tle": {"line1": "1 37498U 93036BMB 25351.24150038  .00002139  00000+0  50498-3 0  9994", "line2": "2 37498  74.0350 175.3650 0012166 238.5243 121.4732 14.54797097654202"}}, "geometry": {"type": "Point", "coordinates": [150.21956158946534, -52.819517294816045]}}, {"type": "Feature", "properties": {"norad_id": 37499, "name": "COSMOS 2251 DEB", "group": "cosmos-2251-debris", "lat": 64.63041060433434, "lon": -11.798490881616747, "alt_km": 756.7612926536349, "timestamp": "2025-12-18T19:29:52.939984+00:00", "meta": {"OBJECT_NAME": "COSMOS 2251 DEB", "OBJECT_ID": "1993-036BMC", "EPOCH": "2025-12-16T15:17:00.283776", "MEAN_MOTION": 14.34346206, "ECCENTRICITY": 0.00270928, "INCLINATION": 74.0379, "RA_OF_ASC_NODE": 315.0551, "ARG_OF_PERICENTER": 29.8963, "MEAN_ANOMALY": 330.3729, "EPHEMERIS_TYPE": 0, "CLASSIFICATION_TYPE": "U", "NORAD_CAT_ID": 37499, "ELEMENT_SET_NO": 999, "REV_AT_EPOCH": 85205, "BSTAR": 0.0001595239, "MEAN_MOTION_DOT": 4.24e-06, "MEAN_MOTION_DDOT": 0}, "tle": {"line1": "1 37499U 93036BMC 25350.63680884  .00000424  00000+0  15952-3 0  9995", "line2": "2 37499  74.0379 315.0551 0027092  29.8963 330.3729 14.34346206852051"}}, "geometry": {"type": "Point", "coordinates": [-11.798490881616747, 64.63041060433434]}}, {"type": "Feature", "properties": {"norad_id": 37528, "name": "COSMOS 2251 DEB", "group": "cosmos-2251-debris", "lat": -37.15753892160436, "lon": -56.74581495858221, "alt_km": 718.2278881712609, "timestamp": "2025-12-18T19:29:52.939994+00:00", "meta": {"OBJECT_NAME": "COSMOS 2251 DEB", "OBJECT_ID": "1993-036BNH", "EPOCH": "2025-12-17T01:06:35.387424", "MEAN_MOTION": 14.50536544, "ECCENTRICITY": 0.00211941, "INCLINATION": 74.037, "RA_OF_ASC_NODE": 114.0433, "ARG_OF_PERICENTER": 261.8302, "MEAN_ANOMALY": 98.0455, "EPHEMERIS_TYPE": 0, "CLASSIFICATION_TYPE": "U", "NORAD_CAT_ID": 37528, "ELEMENT_SET_NO": 999, "REV_AT_EPOCH": 85993, "BSTAR": 0.00037344013, "MEAN_MOTION_DOT": 1.439e-05, "MEAN_MOTION_DDOT": 0}, "tle": {"line1": "1 37528U 93036BNH 25351.04624291  .00001439  00000+0  37344-3 0  9990", "line2": "2 37528  74.0370 114.0433 0021194 261.8302  98.0455 14.50536544859935"}}, "geometry": {"type": "Point", "coordinates": [-56.74581495858221, -37.15753892160436]}}, {"type": "Feature", "properties": {"norad_id": 37530, "name": "COSMOS 2251 DEB", "group": "cosmos-2251-debris", "lat": 39.84935487624322, "lon": 128.69968830509765, "alt_km": 781.1182400734497, "timestamp": "2025-12-18T19:29:52.940004+00:00", "meta": {"OBJECT_NAME": "COSMOS 2251 DEB", "OBJECT_ID": "1993-036BNK", "EPOCH": "2025-12-16T15:31:15.279168", "MEAN_MOTION": 14.34508686, "ECCENTRICITY": 0.00259991, "INCLINATION": 74.0359, "RA_OF_ASC_NODE": 326.4868, "ARG_OF_PERICENTER": 27.4409, "MEAN_ANOMALY": 90.6459, "EPHEMERIS_TYPE": 0, "CLASSIFICATION_TYPE": "U", "NORAD_CAT_ID": 37530, "ELEMENT_SET_NO": 999, "REV_AT_EPOCH": 85288, "BSTAR": 0.00021920121, "MEAN_MOTION_DOT": 5.94e-06, "MEAN_MOTION_DDOT": 0}, "tle": {"line1": "1 37530U 93036BNK 25350.64670462  .00000594  00000+0  21920-3 0  9993", "line2": "2 37530  74.0359 326.4868 0025999  27.4409  90.6459 14.34508686852884"}}, "geometry": {"type": "Point", "coordinates": [128.69968830509765, 39.84935487624322]}}]}